O3B FM5                 
1 39188U 13031A   20329.36501821 -.00000025  00000-0  00000-0 0  9997
2 39188   0.0544  27.6822 0003126 203.8691 128.4245  5.00115828135434
O3B FM4                 
1 39189U 13031B   20329.63069367 -.00000024  00000-0  00000-0 0  9991
2 39189   0.0455  12.9033 0003081 228.6935 118.3762  5.00116077135465
O3B FM2                 
1 39190U 13031C   20330.28257672 -.00000023  00000-0  00000-0 0  9993
2 39190   0.0535 351.8787 0006268 306.5288  61.5337  5.00115593135564
O3B PFM                 
1 39191U 13031D   20330.33615582 -.00000023  00000-0  00000+0 0  9997
2 39191   0.0505  18.5118 0003283 225.5529 115.9059  5.00115560135568
O3B FM3                 
1 40079U 14038A   20330.41718508 -.00000023  00000-0  00000-0 0  9994
2 40079   0.0514   5.6840 0002888 188.6099 165.7024  5.00115633111510
O3B FM7                 
1 40080U 14038B   20329.56410634 -.00000024  00000-0  00000-0 0  9990
2 40080   0.0550   2.7426 0004012 262.8394  94.3761  5.00115626116314
O3B FM6                 
1 40081U 14038C   20329.79014513 -.00000024  00000-0  00000+0 0  9991
2 40081   0.0507   4.8667 0002792 238.9137 116.1950  5.00115998116561
O3B FM8                 
1 40082U 14038D   20330.44356986 -.00000023  00000-0  00000-0 0  9999
2 40082   0.0498   1.2731 0002608 243.8210 114.8832  5.00115309116398
O3B FM10                
1 40348U 14083A   20330.27008960 -.00000023  00000-0  00000+0 0  9990
2 40348   0.0467  14.3668 0002635 229.1823 116.4282  5.00115683108506
O3B FM11                
1 40349U 14083B   20330.28326932 -.00000023  00000-0  00000+0 0  9994
2 40349   0.0514  15.0758 0003335 233.6058 111.2872  5.00115752108501
O3B FM12                
1 40350U 14083C   20330.35081762 -.00000023  00000-0  00000-0 0  9994
2 40350   0.0508  13.9458 0002756 234.4190 111.6102  5.00115639108416
O3B FM9                 
1 40351U 14083D   20330.33694403 -.00000023  00000-0  00000-0 0  9995
2 40351   0.0525  15.5702 0002721 228.2908 116.1154  5.00115225108526
DIAMOND RED             
1 42783U 17036U   20330.38621664  .00002087  00000-0  91022-4 0  9990
2 42783  97.2811  19.2486 0012040 173.4770 186.6626 15.23192871190240
DIAMOND GREEN           
1 42785U 17036W   20330.38522929  .00002232  00000-0  97157-4 0  9993
2 42785  97.2814  19.2880 0011939 174.0619 186.0762 15.23190322190310
DIAMOND BLUE            
1 42786U 17036X   20330.38421160  .00002067  00000-0  90174-4 0  9997
2 42786  97.2814  19.2814 0011766 174.1778 185.9598 15.23192489190314
LEO VANTAGE 1           
1 43113U 18004C   20330.38889487 -.00000051  00000-0 -60688-5 0  9999
2 43113  99.3520  22.9352 0047434 338.7593  21.1588 13.78879019144237
O3B FM15                
1 43231U 18024A   20330.40358216 -.00000023  00000-0  00000-0 0  9991
2 43231   0.0432  14.4990 0003025 227.5360 117.9387  5.00115390 49559
O3B FM16                
1 43232U 18024B   20330.25698608 -.00000023  00000-0  00000-0 0  9997
2 43232   0.0392  15.8421 0003049 226.7513 117.3799  5.00115413 49496
O3B FM14                
1 43233U 18024C   20330.29695407 -.00000023  00000-0  00000-0 0  9996
2 43233   0.0377  15.4778 0003132 229.9642 114.5297  5.00115845 49482
O3B FM13                
1 43234U 18024D   20330.51044423 -.00000022  00000-0  00000-0 0  9997
2 43234   0.0637  28.6928 0005561 199.4044 131.8598  5.00115695 49546
O3B FM20                
1 44112U 19020A   20324.52632194 -.00000026  00000-0  00000-0 0  9996
2 44112   0.0466  13.6095 0003407 222.4856 123.8763  5.00115553 29812
O3B FM19                
1 44113U 19020B   20330.31056389 -.00000023  00000-0  00000-0 0  9994
2 44113   0.0793  34.8202 0003793 188.9565 136.1976  5.00115766 29901
O3B FM17                
1 44114U 19020C   20329.83058004 -.00000024  00000-0  00000-0 0  9997
2 44114   0.0515 357.1650 0003869 279.7076  83.0875  5.00115841 30063
O3B FM18                
1 44115U 19020D   20330.17723075 -.00000023  00000-0  00000+0 0  9992
2 44115   0.0468  13.9999 0002917 226.8986 119.0766  5.00115547 30084
SALSAT                  
1 46495U 20068K   20330.59111378 -.00000134  00000-0 -53223-5 0  9997
2 46495  97.6734 263.5504 0018551  45.4029 314.8707 15.03253907  8705
